start=new Date('2023-03-29T00:00:00.000Z').valueOf();
sats=[{"RA_OF_ASC_NODE":"38.0537","FILE":"3873921","PERIOD":"95.437","CLASSIFICATION_TYPE":"U","BSTAR":"0.00123500000000","ARG_OF_PERICENTER":"96.7220","EPOCH":"2023-03-28T21:02:50.386848","ELEMENT_SET_NO":"999","SITE":"AFETR","NORAD_CAT_ID":"53597","INCLINATION":"53.2181","EPHEMERIS_TYPE":"0","DECAY_DATE":null,"MEAN_ELEMENT_THEORY":"SGP4","MEAN_MOTION_DDOT":"0.0000000000000","RCS_SIZE":"LARGE","GP_ID":"229069513","APOAPSIS":"540.813","LAUNCH_DATE":"2022-08-28","REF_FRAME":"TEME","CENTER_NAME":"EARTH","SEMIMAJOR_AXIS":"6917.844","TIME_SYSTEM":"UTC","MEAN_MOTION_DOT":"0.00019428","COUNTRY_CODE":"US","OBJECT_TYPE":"PAYLOAD","TLE_LINE1":"1 53597U 22104K   23087.87697207  .00019428  00000-0  12350-2 0  9991","ECCENTRICITY":"0.00015950","MEAN_ANOMALY":"263.3954","OBJECT_NAME":"STARLINK-4682","TLE_LINE2":"2 53597  53.2181  38.0537 0001595  96.7220 263.3954 15.08851769 33056","PERIAPSIS":"538.606","REV_AT_EPOCH":"3305","MEAN_MOTION":"15.08851769","OBJECT_ID":"2022-104K"},{"COUNTRY_CODE":"US","MEAN_MOTION_DOT":"0.00017926","OBJECT_TYPE":"PAYLOAD","TIME_SYSTEM":"UTC","SEMIMAJOR_AXIS":"6917.812","TLE_LINE1":"1 53598U 22104L   23087.13728162  .00017926  00000-0  11408-2 0  9990","ECCENTRICITY":"0.00016270","OBJECT_NAME":"STARLINK-4676","MEAN_ANOMALY":"262.5642","TLE_LINE2":"2 53598  53.2160  41.2561 0001627  97.5535 262.5642 15.08862424 32943","REV_AT_EPOCH":"3294","MEAN_MOTION":"15.08862424","PERIAPSIS":"538.551","OBJECT_ID":"2022-104L","PERIOD":"95.436","FILE":"3873565","RA_OF_ASC_NODE":"41.2561","ARG_OF_PERICENTER":"97.5535","BSTAR":"0.00114080000000","CLASSIFICATION_TYPE":"U","ELEMENT_SET_NO":"999","SITE":"AFETR","EPOCH":"2023-03-28T03:17:41.131968","EPHEMERIS_TYPE":"0","NORAD_CAT_ID":"53598","INCLINATION":"53.2160","MEAN_MOTION_DDOT":"0.0000000000000","MEAN_ELEMENT_THEORY":"SGP4","DECAY_DATE":null,"LAUNCH_DATE":"2022-08-28","APOAPSIS":"540.802","GP_ID":"229035099","RCS_SIZE":"LARGE","CENTER_NAME":"EARTH","REF_FRAME":"TEME"},{"TLE_LINE1":"1 53600U 22104N   23087.26238493  .00018752  00000-0  11924-2 0  9992","OBJECT_TYPE":"PAYLOAD","COUNTRY_CODE":"US","MEAN_MOTION_DOT":"0.00018752","TIME_SYSTEM":"UTC","SEMIMAJOR_AXIS":"6917.811","OBJECT_NAME":"STARLINK-4677","MEAN_ANOMALY":"270.3300","ECCENTRICITY":"0.00010410","TLE_LINE2":"2 53600  53.2167  40.6142 0001041  89.7811 270.3300 15.08862828 32960","OBJECT_ID":"2022-104N","MEAN_MOTION":"15.08862828","REV_AT_EPOCH":"3296","PERIAPSIS":"538.955","ARG_OF_PERICENTER":"89.7811","BSTAR":"0.00119240000000","CLASSIFICATION_TYPE":"U","PERIOD":"95.436","FILE":"3873565","RA_OF_ASC_NODE":"40.6142","EPHEMERIS_TYPE":"0","NORAD_CAT_ID":"53600","INCLINATION":"53.2167","SITE":"AFETR","ELEMENT_SET_NO":"999","EPOCH":"2023-03-28T06:17:50.057952","LAUNCH_DATE":"2022-08-28","APOAPSIS":"540.396","GP_ID":"229034617","RCS_SIZE":"LARGE","MEAN_MOTION_DDOT":"0.0000000000000","MEAN_ELEMENT_THEORY":"SGP4","DECAY_DATE":null,"CENTER_NAME":"EARTH","REF_FRAME":"TEME"},{"OBJECT_ID":"2022-104P","REV_AT_EPOCH":"3294","MEAN_MOTION":"15.08854787","PERIAPSIS":"538.926","TLE_LINE2":"2 53601  53.2166  41.2769 0001119  95.1650 264.9470 15.08854787 32940","OBJECT_NAME":"STARLINK-4675","MEAN_ANOMALY":"264.9470","ECCENTRICITY":"0.00011190","TLE_LINE1":"1 53601U 22104P   23087.14095933  .00009892  00000-0  63848-3 0  9998","TIME_SYSTEM":"UTC","COUNTRY_CODE":"US","OBJECT_TYPE":"PAYLOAD","MEAN_MOTION_DOT":"0.00009892","SEMIMAJOR_AXIS":"6917.835","REF_FRAME":"TEME","CENTER_NAME":"EARTH","LAUNCH_DATE":"2022-08-28","RCS_SIZE":"LARGE","GP_ID":"229035367","APOAPSIS":"540.474","MEAN_MOTION_DDOT":"0.0000000000000","DECAY_DATE":null,"MEAN_ELEMENT_THEORY":"SGP4","EPHEMERIS_TYPE":"0","NORAD_CAT_ID":"53601","INCLINATION":"53.2166","SITE":"AFETR","ELEMENT_SET_NO":"999","EPOCH":"2023-03-28T03:22:58.886112","ARG_OF_PERICENTER":"95.1650","BSTAR":"0.00063848000000","CLASSIFICATION_TYPE":"U","FILE":"3873565","PERIOD":"95.437","RA_OF_ASC_NODE":"41.2769"},{"TLE_LINE1":"1 53602U 22104Q   23087.83610215  .00006583  00000-0  43127-3 0  9993","SEMIMAJOR_AXIS":"6917.866","MEAN_MOTION_DOT":"0.00006583","COUNTRY_CODE":"US","OBJECT_TYPE":"PAYLOAD","TIME_SYSTEM":"UTC","MEAN_ANOMALY":"281.6267","OBJECT_NAME":"STARLINK-4648","ECCENTRICITY":"0.00015350","TLE_LINE2":"2 53602  53.2180  33.5249 0001535  78.4898 281.6267 15.08844752 33115","OBJECT_ID":"2022-104Q","PERIAPSIS":"538.669","REV_AT_EPOCH":"3311","MEAN_MOTION":"15.08844752","BSTAR":"0.00043127000000","CLASSIFICATION_TYPE":"U","ARG_OF_PERICENTER":"78.4898","RA_OF_ASC_NODE":"33.5249","PERIOD":"95.437","FILE":"3873921","NORAD_CAT_ID":"53602","INCLINATION":"53.2180","EPHEMERIS_TYPE":"0","EPOCH":"2023-03-28T20:03:59.225760","ELEMENT_SET_NO":"999","SITE":"AFETR","APOAPSIS":"540.793","GP_ID":"229070014","RCS_SIZE":"LARGE","LAUNCH_DATE":"2022-08-28","MEAN_ELEMENT_THEORY":"SGP4","DECAY_DATE":null,"MEAN_MOTION_DDOT":"0.0000000000000","CENTER_NAME":"EARTH","REF_FRAME":"TEME"},{"REF_FRAME":"TEME","CENTER_NAME":"EARTH","LAUNCH_DATE":"2022-08-28","RCS_SIZE":"LARGE","GP_ID":"229068990","APOAPSIS":"540.549","MEAN_MOTION_DDOT":"0.0000000000000","DECAY_DATE":null,"MEAN_ELEMENT_THEORY":"SGP4","EPHEMERIS_TYPE":"0","NORAD_CAT_ID":"53603","INCLINATION":"53.2193","SITE":"AFETR","ELEMENT_SET_NO":"999","EPOCH":"2023-03-28T20:19:54.251616","ARG_OF_PERICENTER":"85.7866","BSTAR":"0.00010178000000","CLASSIFICATION_TYPE":"U","FILE":"3873921","PERIOD":"95.437","RA_OF_ASC_NODE":"33.5932","OBJECT_ID":"2022-104R","MEAN_MOTION":"15.08848232","REV_AT_EPOCH":"3311","PERIAPSIS":"538.891","TLE_LINE2":"2 53603  53.2193  33.5932 0001198  85.7866 274.3263 15.08848232 33112","OBJECT_NAME":"STARLINK-4692","MEAN_ANOMALY":"274.3263","ECCENTRICITY":"0.00011980","TLE_LINE1":"1 53603U 22104R   23087.84715569  .00001333  00000-0  10178-3 0  9991","TIME_SYSTEM":"UTC","COUNTRY_CODE":"US","OBJECT_TYPE":"PAYLOAD","MEAN_MOTION_DOT":"0.00001333","SEMIMAJOR_AXIS":"6917.855"},{"MEAN_ANOMALY":"281.8002","OBJECT_NAME":"STARLINK-4690","ECCENTRICITY":"0.00016610","TLE_LINE1":"1 53604U 22104S   23087.80935032  .00006902  00000-0  45125-3 0  9994","SEMIMAJOR_AXIS":"6917.856","MEAN_MOTION_DOT":"0.00006902","COUNTRY_CODE":"US","OBJECT_TYPE":"PAYLOAD","TIME_SYSTEM":"UTC","OBJECT_ID":"2022-104S","PERIAPSIS":"538.572","MEAN_MOTION":"15.08847886","REV_AT_EPOCH":"3311","TLE_LINE2":"2 53604  53.2177  33.3579 0001661  78.3177 281.8002 15.08847886 33116","NORAD_CAT_ID":"53604","INCLINATION":"53.2177","EPHEMERIS_TYPE":"0","EPOCH":"2023-03-28T19:25:27.867648","SITE":"AFETR","ELEMENT_SET_NO":"999","BSTAR":"0.00045125000000","CLASSIFICATION_TYPE":"U","ARG_OF_PERICENTER":"78.3177","RA_OF_ASC_NODE":"33.3579","PERIOD":"95.437","FILE":"3873921","REF_FRAME":"TEME","CENTER_NAME":"EARTH","APOAPSIS":"540.870","GP_ID":"229068512","RCS_SIZE":"LARGE","LAUNCH_DATE":"2022-08-28","MEAN_ELEMENT_THEORY":"SGP4","DECAY_DATE":null,"MEAN_MOTION_DDOT":"0.0000000000000"},{"OBJECT_NAME":"STARLINK-4693","MEAN_ANOMALY":"264.5219","ECCENTRICITY":"0.00012000","TLE_LINE1":"1 53605U 22104T   23087.26606922  .00015350  00000-0  97983-3 0  9994","COUNTRY_CODE":"US","MEAN_MOTION_DOT":"0.00015350","OBJECT_TYPE":"PAYLOAD","TIME_SYSTEM":"UTC","SEMIMAJOR_AXIS":"6917.813","OBJECT_ID":"2022-104T","REV_AT_EPOCH":"3227","MEAN_MOTION":"15.08861902","PERIAPSIS":"538.848","TLE_LINE2":"2 53605  53.2174  40.6370 0001200  95.5910 264.5219 15.08861902 32278","EPHEMERIS_TYPE":"0","NORAD_CAT_ID":"53605","INCLINATION":"53.2174","SITE":"AFETR","ELEMENT_SET_NO":"999","EPOCH":"2023-03-28T06:23:08.380608","ARG_OF_PERICENTER":"95.5910","BSTAR":"0.00097983000000","CLASSIFICATION_TYPE":"U","PERIOD":"95.436","FILE":"3873116","RA_OF_ASC_NODE":"40.6370","REF_FRAME":"TEME","CENTER_NAME":"EARTH","LAUNCH_DATE":"2022-08-28","GP_ID":"229000763","APOAPSIS":"540.509","RCS_SIZE":"LARGE","MEAN_MOTION_DDOT":"0.0000000000000","MEAN_ELEMENT_THEORY":"SGP4","DECAY_DATE":null},{"ARG_OF_PERICENTER":"55.9840","BSTAR":"0.00014552000000","CLASSIFICATION_TYPE":"U","PERIOD":"95.437","FILE":"3873796","RA_OF_ASC_NODE":"27.8699","EPHEMERIS_TYPE":"0","INCLINATION":"53.2179","NORAD_CAT_ID":"53606","SITE":"AFETR","ELEMENT_SET_NO":"999","EPOCH":"2023-03-28T23:00:46.792224","LAUNCH_DATE":"2022-08-28","GP_ID":"229041173","APOAPSIS":"540.582","RCS_SIZE":"LARGE","MEAN_MOTION_DDOT":"0.0000000000000","MEAN_ELEMENT_THEORY":"SGP4","DECAY_DATE":null,"REF_FRAME":"TEME","CENTER_NAME":"EARTH","TLE_LINE1":"1 53606U 22104U   23087.95887491  .00002029  00000-0  14552-3 0  9993","COUNTRY_CODE":"US","MEAN_MOTION_DOT":"0.00002029","OBJECT_TYPE":"PAYLOAD","TIME_SYSTEM":"UTC","SEMIMAJOR_AXIS":"6917.870","OBJECT_NAME":"STARLINK-4590","MEAN_ANOMALY":"304.1268","ECCENTRICITY":"0.00012240","TLE_LINE2":"2 53606  53.2179  27.8699 0001224  55.9840 304.1268 15.08843385 32510","OBJECT_ID":"2022-104U","REV_AT_EPOCH":"3251","MEAN_MOTION":"15.08843385","PERIAPSIS":"538.888"},{"TLE_LINE1":"1 53607U 22104V   23087.22424575  .00005605  00000-0  36985-3 0  9991","SEMIMAJOR_AXIS":"6917.845","OBJECT_TYPE":"PAYLOAD","COUNTRY_CODE":"US","MEAN_MOTION_DOT":"0.00005605","TIME_SYSTEM":"UTC","MEAN_ANOMALY":"245.6136","OBJECT_NAME":"STARLINK-4591","ECCENTRICITY":"0.00013130","TLE_LINE2":"2 53607  53.2169  36.0998 0001313 114.4993 245.6136 15.08851734 32333","OBJECT_ID":"2022-104V","PERIAPSIS":"538.801","REV_AT_EPOCH":"3233","MEAN_MOTION":"15.08851734","CLASSIFICATION_TYPE":"U","BSTAR":"0.00036985000000","ARG_OF_PERICENTER":"114.4993","RA_OF_ASC_NODE":"36.0998","PERIOD":"95.437","FILE":"3873116","INCLINATION":"53.2169","NORAD_CAT_ID":"53607","EPHEMERIS_TYPE":"0","EPOCH":"2023-03-28T05:22:54.832800","SITE":"AFETR","ELEMENT_SET_NO":"999","GP_ID":"229000772","APOAPSIS":"540.618","RCS_SIZE":"LARGE","LAUNCH_DATE":"2022-08-28","MEAN_ELEMENT_THEORY":"SGP4","DECAY_DATE":null,"MEAN_MOTION_DDOT":"0.0000000000000","REF_FRAME":"TEME","CENTER_NAME":"EARTH"}];
